<?xml version="1.0" encoding="UTF-8"?>
<kml xmlns="http://www.opengis.net/kml/2.2" xmlns:gx="http://www.google.com/kml/ext/2.2">
    <Document id="162">
        <Style id="167">
            <LineStyle id="168">
                <color>ffb3def5</color>
                <colorMode>normal</colorMode>
            </LineStyle>
            <PolyStyle id="169">
                <color>64b3def5</color>
                <colorMode>normal</colorMode>
                <fill>1</fill>
                <outline>1</outline>
            </PolyStyle>
        </Style>
        <Style id="174">
            <LineStyle id="175">
                <color>ffb3def5</color>
                <colorMode>normal</colorMode>
            </LineStyle>
            <PolyStyle id="176">
                <color>64b3def5</color>
                <colorMode>normal</colorMode>
                <fill>1</fill>
                <outline>1</outline>
            </PolyStyle>
        </Style>
        <Style id="181">
            <LineStyle id="182">
                <color>ffb3def5</color>
                <colorMode>normal</colorMode>
            </LineStyle>
            <PolyStyle id="183">
                <color>64b3def5</color>
                <colorMode>normal</colorMode>
                <fill>1</fill>
                <outline>1</outline>
            </PolyStyle>
        </Style>
        <name>Contingency Volume</name>
        <Placemark id="164">
            <name>Contingency Volume.A</name>
            <description>Exported at 2026-06-30 11:25:35.531331</description>
            <styleUrl>#167</styleUrl>
            <Polygon id="163">
                <extrude>1</extrude>
                <altitudeMode>absolute</altitudeMode>
                <outerBoundaryIs>
                    <LinearRing id="165">
                        <coordinates>-4.13360783292037,52.810950347739244,165.0 -4.1336076995359585,52.81320114865801,165.0 -4.1299613296830096,52.8161157568324,165.0 -4.1148662207714635,52.816226468194344,165.0 -4.114865144788168,52.797954864316985,165.0 -4.124565152110245,52.797954650991464,165.0 -4.124564805417553,52.79213848315485,165.0 -4.172436411034541,52.77095174890126,165.0 -4.172434311318515,52.806945578730804,165.0 -4.1389484177547295,52.806945031144345,165.0 -4.13360783292037,52.810950347739244,165.0</coordinates>
                    </LinearRing>
                </outerBoundaryIs>
            </Polygon>
        </Placemark>
        <Placemark id="171">
            <name>Contingency Volume.B</name>
            <description>Exported at 2026-06-30 11:25:35.531331</description>
            <styleUrl>#174</styleUrl>
            <Polygon id="170">
                <extrude>1</extrude>
                <altitudeMode>absolute</altitudeMode>
                <outerBoundaryIs>
                    <LinearRing id="172">
                        <coordinates>-4.2008653956289566,52.805819890520986,457.20000000000005 -4.1615547762728475,52.80581984304221,457.20000000000005 -4.146896919850469,52.79307571260865,457.20000000000005 -4.146889148671251,52.74418234712363,457.20000000000005 -4.196832347374381,52.74418110496119,457.20000000000005 -4.217110130079705,52.748733032288186,457.20000000000005 -4.217103412853247,52.79138775586604,457.20000000000005 -4.2008653956289566,52.805819890520986,457.20000000000005</coordinates>
                    </LinearRing>
                </outerBoundaryIs>
            </Polygon>
        </Placemark>
        <Placemark id="178">
            <name>Contingency Volume.C</name>
            <description>Exported at 2026-06-30 11:25:35.531331</description>
            <styleUrl>#181</styleUrl>
            <Polygon id="177">
                <extrude>1</extrude>
                <altitudeMode>absolute</altitudeMode>
                <outerBoundaryIs>
                    <LinearRing id="179">
                        <coordinates>-4.2158244485408884,52.770750334638926,1828.8000000000002 -4.162204014136011,52.748412411514266,1828.8000000000002 -4.162192212047261,52.7294268508007,1828.8000000000002 -4.21564392074911,52.68212106077126,1828.8000000000002 -4.283653792595216,52.71043106795505,1828.8000000000002 -4.2158244485408884,52.770750334638926,1828.8000000000002</coordinates>
                    </LinearRing>
                </outerBoundaryIs>
            </Polygon>
        </Placemark>
    </Document>
</kml>
