<?xml version="1.0" encoding="UTF-8"?>
<kml xmlns="http://www.opengis.net/kml/2.2" xmlns:gx="http://www.google.com/kml/ext/2.2">
    <Document id="139">
        <Style id="144">
            <LineStyle id="145">
                <color>ff008000</color>
                <colorMode>normal</colorMode>
            </LineStyle>
            <PolyStyle id="146">
                <color>c8008000</color>
                <colorMode>normal</colorMode>
                <fill>1</fill>
                <outline>1</outline>
            </PolyStyle>
        </Style>
        <Style id="151">
            <LineStyle id="152">
                <color>ff008000</color>
                <colorMode>normal</colorMode>
            </LineStyle>
            <PolyStyle id="153">
                <color>c8008000</color>
                <colorMode>normal</colorMode>
                <fill>1</fill>
                <outline>1</outline>
            </PolyStyle>
        </Style>
        <Style id="158">
            <LineStyle id="159">
                <color>ff008000</color>
                <colorMode>normal</colorMode>
            </LineStyle>
            <PolyStyle id="160">
                <color>c8008000</color>
                <colorMode>normal</colorMode>
                <fill>1</fill>
                <outline>1</outline>
            </PolyStyle>
        </Style>
        <name>Flight Volume</name>
        <Placemark id="141">
            <name>Flight Volume.A</name>
            <description>Exported at 2026-06-30 11:25:35.531331</description>
            <styleUrl>#144</styleUrl>
            <Polygon id="140">
                <extrude>1</extrude>
                <altitudeMode>absolute</altitudeMode>
                <outerBoundaryIs>
                    <LinearRing id="142">
                        <coordinates>-4.129515426215924,52.81236750556019,92.47706422018348 -4.1279094355302925,52.8136511356911,92.47706422018348 -4.118958502046639,52.813716859596695,92.47706422018348 -4.118956472437239,52.800434474570636,92.47706422018348 -4.1286564913823485,52.800433921011496,92.47706422018348 -4.128655403129797,52.793398884170585,92.47706422018348 -4.168347221092492,52.77583351291301,92.47706422018348 -4.168342886628282,52.804466440106864,92.47706422018348 -4.136994406697834,52.80446510995558,92.47706422018348 -4.129515778928505,52.81007363742726,92.47706422018348 -4.129515426215924,52.81236750556019,92.47706422018348</coordinates>
                    </LinearRing>
                </outerBoundaryIs>
            </Polygon>
        </Placemark>
        <Placemark id="148">
            <name>Flight Volume.B</name>
            <description>Exported at 2026-06-30 11:25:35.531331</description>
            <styleUrl>#151</styleUrl>
            <Polygon id="147">
                <extrude>1</extrude>
                <altitudeMode>absolute</altitudeMode>
                <outerBoundaryIs>
                    <LinearRing id="149">
                        <coordinates>-4.163690184343338,52.803340598329314,384.6770642201835 -4.1509871829149665,52.792296685813746,384.6770642201835 -4.150975627466058,52.74666264146225,384.6770642201835 -4.196101277822915,52.74666085342297,384.6770642201835 -4.213023401274704,52.75045970385125,384.6770642201835 -4.213013324968642,52.790622743018524,384.6770642201835 -4.198703197180362,52.80334066570176,384.6770642201835 -4.163690184343338,52.803340598329314,384.6770642201835</coordinates>
                    </LinearRing>
                </outerBoundaryIs>
            </Polygon>
        </Placemark>
        <Placemark id="155">
            <name>Flight Volume.C</name>
            <description>Exported at 2026-06-30 11:25:35.531331</description>
            <styleUrl>#158</styleUrl>
            <Polygon id="154">
                <extrude>1</extrude>
                <altitudeMode>absolute</altitudeMode>
                <outerBoundaryIs>
                    <LinearRing id="156">
                        <coordinates>-4.166289344362529,52.74710739484289,1756.2770642201835 -4.166277252671063,52.73019590188665,1756.2770642201835 -4.216701137856711,52.68556846214757,1756.2770642201835 -4.2779847956270975,52.71107909727849,1756.2770642201835 -4.214759643092435,52.767300045795984,1756.2770642201835 -4.166289344362529,52.74710739484289,1756.2770642201835</coordinates>
                    </LinearRing>
                </outerBoundaryIs>
            </Polygon>
        </Placemark>
    </Document>
</kml>
